ONEWEB-0068             
1 45446U 20020Y   26166.09331822 -.00000449  00000+0 -13015-2 0  9996
2 45446  87.8900  21.4807 0001752  78.8801 281.2524 13.11418708302324
ONEWEB-0046             
1 45447U 20020Z   26166.16127007 -.00000588  00000+0 -16960-2 0  9999
2 45447  87.8890  21.4730 0002019  79.5224 280.6131 13.11415156302345
ONEWEB-0063             
1 45448U 20020AA  26166.11394142  .00000380  00000+0  10377-2 0  9995
2 45448  87.8897  21.4812 0002131  85.6991 274.4380 13.11420666302426
ONEWEB-0019             
1 45449U 20020AB  26166.15266382 -.00000323  00000+0 -94662-3 0  9993
2 45449  87.8890  21.4600 0001709  89.2712 270.8611 13.11414318302273
ONEWEB-0094             
1 45450U 20020AC  26166.07671807  .00000052  00000+0  10205-3 0  9996
2 45450  87.9144   6.2688 0001630  85.3029 274.8289 13.17647339306036
ONEWEB-0087             
1 45451U 20020AD  26166.12385006  .00000527  00000+0  14500-2 0  9994
2 45451  87.8906  21.4531 0001698  75.8784 284.2533 13.11417798302316
ONEWEB-0082             
1 45452U 20020AE  26166.12046757  .00000566  00000+0  15608-2 0  9995
2 45452  87.8898  21.4705 0001878  70.0243 290.1087 13.11418773302401
ONEWEB-0050             
1 45453U 20020AF  26166.19534489  .00002367  00000+0  24115-3 0  9992
2 45453  88.9300 233.4810 0003462  31.7100 328.4337 14.90375289340082
ONEWEB-0034             
1 45454U 20020AG  26166.15802222 -.00001063  00000+0 -30357-2 0  9990
2 45454  87.8896  21.4722 0001776  85.0974 275.0357 13.11419503302329
ONEWEB-0060             
1 45455U 20020AH  26166.11295828  .00000355  00000+0  96461-3 0  9995
2 45455  87.8890  21.4796 0001384  50.9295 309.1955 13.11418940302278
ONEWEB-0086             
1 45456U 20020AJ  26166.09162281 -.00000496  00000+0 -14360-2 0  9994
2 45456  87.8898  21.4793 0001047  78.9803 281.1443 13.11415867302338
ONEWEB-0088             
1 45457U 20020AK  26166.14602036 -.00000059  00000+0 -20314-3 0  9990
2 45457  87.8904  21.4408 0002180  80.2699 279.8675 13.11416360302271
ONEWEB-0102             
1 47258U 20100A   26166.22802322 -.00000359  00000+0 -10324-2 0  9991
2 47258  87.8937 351.0649 0001582  96.5235 263.6074 13.12441499264473
ONEWEB-0109             
1 47259U 20100B   26166.00778379 -.00000453  00000+0 -12941-2 0  9994
2 47259  87.8949 351.0922 0001827  95.5422 264.5915 13.12443377264279
ONEWEB-0110             
1 47260U 20100C   26165.95866067  .00000422  00000+0  11386-2 0  9997
2 47260  87.8948 351.0862 0001539  88.2970 271.8335 13.12444590264433
ONEWEB-0111             
1 47261U 20100D   26166.06538593 -.00000161  00000+0 -48233-3 0  9995
2 47261  87.8947 351.0834 0001767  87.2963 272.8368 13.12440478264287
ONEWEB-0114             
1 47262U 20100E   26166.01964445 -.00000068  00000+0 -22517-3 0  9993
2 47262  87.8949 351.0902 0002005  95.9856 264.1501 13.12444800264230
ONEWEB-0117             
1 47263U 20100F   26166.01117758 -.00000325  00000+0 -93959-3 0  9995
2 47263  87.8945 351.0829 0001764  90.4951 269.6380 13.12443823264242
ONEWEB-0118             
1 47264U 20100G   26166.04506773  .00000362  00000+0  97005-3 0  9993
2 47264  87.8947 351.0787 0002131  92.1029 268.0343 13.12442341264440
ONEWEB-0119             
1 47265U 20100H   26166.22294918 -.00000262  00000+0 -76289-3 0  9991
2 47265  87.8937 351.0600 0001798  90.5473 269.5861 13.12442859264442
ONEWEB-0120             
1 47266U 20100J   26166.01809564 -.00000191  00000+0 -56583-3 0  9994
2 47266  87.8938 351.1023 0001824  96.4407 263.6930 13.12444955264447
ONEWEB-0121             
1 47267U 20100K   26166.00609231 -.00000390  00000+0 -11208-2 0  9998
2 47267  87.8949 351.0905 0001744  80.4402 279.6924 13.12443595264356
ONEWEB-0122             
1 47268U 20100L   26166.22888356 -.00000316  00000+0 -91473-3 0  9991
2 47268  87.8950 351.0501 0001698  95.2051 264.9271 13.12442951264293
ONEWEB-0123             
1 47269U 20100M   26166.22463999 -.00000298  00000+0 -86392-3 0  9997
2 47269  87.8937 351.0587 0001922  90.2465 269.8884 13.12443650264434
ONEWEB-0124             
1 47270U 20100N   26166.06200356 -.00000053  00000+0 -18175-3 0  9990
2 47270  87.8936 351.0943 0001785  86.9112 273.2220 13.12442854264291
ONEWEB-0125             
1 47271U 20100P   26165.96374027  .00000475  00000+0  12836-2 0  9999
2 47271  87.8948 351.0969 0001982  82.1595 277.9759 13.12444636264349
ONEWEB-0126             
1 47272U 20100Q   26166.06045762  .00000010  00000+0 -63707-5 0  9995
2 47272  87.8941 351.0935 0001859  94.1334 266.0007 13.12441346264422
ONEWEB-0127             
1 47273U 20100R   26165.95018592  .00000197  00000+0  51121-3 0  9994
2 47273  87.8936 351.1145 0001812  95.0426 265.0910 13.12445230264431
ONEWEB-0128             
1 47274U 20100S   26166.04845173  .00000293  00000+0  77795-3 0  9991
2 47274  87.8936 351.1087 0001503  87.4569 272.6732 13.12442378264466
ONEWEB-0129             
1 47275U 20100T   26165.95188766  .00000221  00000+0  57980-3 0  9994
2 47275  87.8947 351.1015 0002339 119.0381 241.0982 13.12443839264383
