OBJECT_NAME,OBJECT_ID,EPOCH,MEAN_MOTION,ECCENTRICITY,INCLINATION,RA_OF_ASC_NODE,ARG_OF_PERICENTER,MEAN_ANOMALY,EPHEMERIS_TYPE,CLASSIFICATION_TYPE,NORAD_CAT_ID,ELEMENT_SET_NO,REV_AT_EPOCH,BSTAR,MEAN_MOTION_DOT,MEAN_MOTION_DDOT
ONEWEB-0068,2020-020Y,2026-06-15T02:14:22.694208,13.11418708,.00017523,87.8900,21.4807,78.8801,281.2524,0,U,45446,999,30232,-.13014611E-2,-.449E-5,0
ONEWEB-0046,2020-020Z,2026-06-15T03:52:13.734048,13.11415156,.00020192,87.8890,21.4730,79.5224,280.6131,0,U,45447,999,30234,-.16959742E-2,-.588E-5,0
ONEWEB-0063,2020-020AA,2026-06-15T02:44:04.538688,13.11420666,.00021317,87.8897,21.4812,85.6991,274.4380,0,U,45448,999,30242,.10376571E-2,.38E-5,0
ONEWEB-0019,2020-020AB,2026-06-15T03:39:50.154048,13.11414318,.00017092,87.8890,21.4600,89.2712,270.8611,0,U,45449,999,30227,-.94662034E-3,-.323E-5,0
ONEWEB-0094,2020-020AC,2026-06-15T01:50:28.441248,13.17647339,.00016305,87.9144,6.2688,85.3029,274.8289,0,U,45450,999,30603,.10205318E-3,.52E-6,0
ONEWEB-0087,2020-020AD,2026-06-15T02:58:20.645184,13.11417798,.00016989,87.8906,21.4531,75.8784,284.2533,0,U,45451,999,30231,.14500497E-2,.527E-5,0
ONEWEB-0082,2020-020AE,2026-06-15T02:53:28.398048,13.11418773,.00018784,87.8898,21.4705,70.0243,290.1087,0,U,45452,999,30240,.15608411E-2,.566E-5,0
ONEWEB-0050,2020-020AF,2026-06-15T04:41:17.798496,14.90375289,.0003462,88.9300,233.4810,31.7100,328.4337,0,U,45453,999,34008,.24114871E-3,.2367E-4,0
ONEWEB-0034,2020-020AG,2026-06-15T03:47:33.119808,13.11419503,.00017767,87.8896,21.4722,85.0974,275.0357,0,U,45454,999,30232,-.30357093E-2,-.1063E-4,0
ONEWEB-0060,2020-020AH,2026-06-15T02:42:39.595392,13.11418940,.00013846,87.8890,21.4796,50.9295,309.1955,0,U,45455,999,30227,.96460989E-3,.355E-5,0
ONEWEB-0086,2020-020AJ,2026-06-15T02:11:56.210784,13.11415867,.00010471,87.8898,21.4793,78.9803,281.1443,0,U,45456,999,30233,-.14359763E-2,-.496E-5,0
ONEWEB-0088,2020-020AK,2026-06-15T03:30:16.159104,13.11416360,.00021802,87.8904,21.4408,80.2699,279.8675,0,U,45457,999,30227,-.20314085E-3,-.59E-6,0
ONEWEB-0102,2020-100A,2026-06-15T05:28:21.206208,13.12441499,.00015825,87.8937,351.0649,96.5235,263.6074,0,U,47258,999,26447,-.10323978E-2,-.359E-5,0
ONEWEB-0109,2020-100B,2026-06-15T00:11:12.519456,13.12443377,.00018274,87.8949,351.0922,95.5422,264.5915,0,U,47259,999,26427,-.12941258E-2,-.453E-5,0
ONEWEB-0110,2020-100C,2026-06-14T23:00:28.281888,13.12444590,.00015398,87.8948,351.0862,88.2970,271.8335,0,U,47260,999,26443,.11385775E-2,.422E-5,0
ONEWEB-0111,2020-100D,2026-06-15T01:34:09.344352,13.12440478,.00017676,87.8947,351.0834,87.2963,272.8368,0,U,47261,999,26428,-.48232747E-3,-.161E-5,0
ONEWEB-0114,2020-100E,2026-06-15T00:28:17.280480,13.12444800,.00020058,87.8949,351.0902,95.9856,264.1501,0,U,47262,999,26423,-.22517461E-3,-.68E-6,0
ONEWEB-0117,2020-100F,2026-06-15T00:16:05.742912,13.12443823,.00017642,87.8945,351.0829,90.4951,269.6380,0,U,47263,999,26424,-.93958595E-3,-.325E-5,0
ONEWEB-0118,2020-100G,2026-06-15T01:04:53.851872,13.12442341,.00021318,87.8947,351.0787,92.1029,268.0343,0,U,47264,999,26444,.97005456E-3,.362E-5,0
ONEWEB-0119,2020-100H,2026-06-15T05:21:02.809152,13.12442859,.00017987,87.8937,351.0600,90.5473,269.5861,0,U,47265,999,26444,-.76288681E-3,-.262E-5,0
ONEWEB-0120,2020-100J,2026-06-15T00:26:03.463296,13.12444955,.00018246,87.8938,351.1023,96.4407,263.6930,0,U,47266,999,26444,-.56583252E-3,-.191E-5,0
ONEWEB-0121,2020-100K,2026-06-15T00:08:46.375584,13.12443595,.00017446,87.8949,351.0905,80.4402,279.6924,0,U,47267,999,26435,-.11208086E-2,-.39E-5,0
ONEWEB-0122,2020-100L,2026-06-15T05:29:35.539584,13.12442951,.00016987,87.8950,351.0501,95.2051,264.9271,0,U,47268,999,26429,-.9147274E-3,-.316E-5,0
ONEWEB-0123,2020-100M,2026-06-15T05:23:28.895136,13.12443650,.00019228,87.8937,351.0587,90.2465,269.8884,0,U,47269,999,26443,-.86391533E-3,-.298E-5,0
ONEWEB-0124,2020-100N,2026-06-15T01:29:17.107584,13.12442854,.00017852,87.8936,351.0943,86.9112,273.2220,0,U,47270,999,26429,-.18174663E-3,-.53E-6,0
ONEWEB-0125,2020-100P,2026-06-14T23:07:47.159328,13.12444636,.00019829,87.8948,351.0969,82.1595,277.9759,0,U,47271,999,26434,.12835526E-2,.475E-5,0
ONEWEB-0126,2020-100Q,2026-06-15T01:27:03.538368,13.12441346,.00018598,87.8941,351.0935,94.1334,266.0007,0,U,47272,999,26442,-.6370715E-5,.1E-6,0
ONEWEB-0127,2020-100R,2026-06-14T22:48:16.063488,13.12445230,.00018124,87.8936,351.1145,95.0426,265.0910,0,U,47273,999,26443,.51121231E-3,.197E-5,0
ONEWEB-0128,2020-100S,2026-06-15T01:09:46.229472,13.12442378,.00015037,87.8936,351.1087,87.4569,272.6732,0,U,47274,999,26446,.77794731E-3,.293E-5,0
ONEWEB-0129,2020-100T,2026-06-14T22:50:43.093824,13.12443839,.00023392,87.8947,351.1015,119.0381,241.0982,0,U,47275,999,26438,.57980096E-3,.221E-5,0
